[{"OBJECT_NAME":"COSMOS 2576","OBJECT_ID":"2024-092A","EPOCH":"2026-03-09T19:49:29.705664","MEAN_MOTION":15.27760963,"ECCENTRICITY":0.0005946,"INCLINATION":97.4253,"RA_OF_ASC_NODE":186.0053,"ARG_OF_PERICENTER":159.7731,"MEAN_ANOMALY":200.3745,"EPHEMERIS_TYPE":0,"CLASSIFICATION_TYPE":"U","NORAD_CAT_ID":59773,"ELEMENT_SET_NO":999,"REV_AT_EPOCH":10127,"BSTAR":0.00056283,"MEAN_MOTION_DOT":0.00015211,"MEAN_MOTION_DDOT":0},{"OBJECT_NAME":"STARLINK-35891","OBJECT_ID":"2025-294R","EPOCH":"2026-03-09T22:29:15.671616","MEAN_MOTION":15.27574617,"ECCENTRICITY":0.00015356,"INCLINATION":43.0028,"RA_OF_ASC_NODE":36.9623,"ARG_OF_PERICENTER":267.3111,"MEAN_ANOMALY":92.7565,"EPHEMERIS_TYPE":0,"CLASSIFICATION_TYPE":"U","NORAD_CAT_ID":67045,"ELEMENT_SET_NO":999,"REV_AT_EPOCH":1483,"BSTAR":0.0013632918,"MEAN_MOTION_DOT":0.00037437,"MEAN_MOTION_DDOT":0}]
